COSMOS 2425 (716)       
1 29670U 06062A   21320.52306313 -.00000040  00000+0  00000+0 0  9992
2 29670  64.8073 250.3132 0024505 343.0431 197.9107  2.13114514115917
COSMOS 2433 (720)       
1 32275U 07052A   21320.91165774 -.00000071  00000+0  00000+0 0  9998
2 32275  66.0776  11.7258 0004586 232.7531  52.9658  2.13104202109430
COSMOS 2432 (719)       
1 32276U 07052B   21321.16840563 -.00000070  00000+0  00000+0 0  9992
2 32276  66.0902  11.8149 0009311 315.9595 115.5896  2.13103361109443
COSMOS 2434 (721)       
1 32393U 07065A   21320.57490971 -.00000038  00000+0  00000+0 0  9998
2 32393  64.4263 248.7000 0001500  75.3347 200.8643  2.13103053108137
COSMOS 2436 (723)       
1 32395U 07065C   21320.85163788 -.00000035  00000+0  00000+0 0  9991
2 32395  64.4353 248.7455 0015417 354.9624 269.5509  2.13102865108075
COSMOS 2456 (730)       
1 36111U 09070A   21321.18798029  .00000070  00000+0  00000+0 0  9996
2 36111  64.3033 128.3420 0001760 353.5902 201.4852  2.13099226 92810
COSMOS 2457 (733)       
1 36112U 09070B   21320.78942339  .00000074  00000+0  00000+0 0  9991
2 36112  64.2876 128.2372 0006843 147.9597 226.9612  2.13101434 92813
COSMOS 2459 (731)       
1 36400U 10007A   21320.64154603 -.00000071  00000+0  00000+0 0  9995
2 36400  65.9713  10.6383 0025407 346.1378 312.4836  2.13109963 91143
COSMOS 2461 (735)       
1 36401U 10007B   21320.63763109 -.00000071  00000+0  00000+0 0  9992
2 36401  65.9665  10.6031 0018056   3.2676 289.8955  2.13103559 91159
COSMOS 2460 (732)       
1 36402U 10007C   21320.70486426 -.00000071  00000+0  00000+0 0  9995
2 36402  65.9533  10.5555 0002006 215.4200  75.6852  2.13106413 91151
COSMOS 2464 (736)       
1 37139U 10041C   21320.71690191 -.00000036  00000+0  00000+0 0  9999
2 37139  64.0254 247.8759 0028380   7.4766 237.4519  2.13100762 87210
COSMOS 2471 (701K)      
1 37372U 11009A   21320.57161310 -.00000071  00000+0  00000+0 0  9992
2 37372  65.9473  10.4877 0017431 229.4261  84.2773  2.13062380 83420
COSMOS 2476 (744)       
1 37867U 11064A   21320.59772584  .00000079  00000+0  00000+0 0  9992
2 37867  64.5966 129.6357 0019565 230.4398 135.4525  2.13101877 78153
COSMOS 2477 (745)       
1 37868U 11064B   21320.82285789  .00000077  00000+0  00000+0 0  9993
2 37868  64.6044 129.6902 0016850 230.8493 126.0098  2.13101670 78109
COSMOS 2475 (743)       
1 37869U 11064C   21320.70516308  .00000078  00000+0  00000+0 0  9996
2 37869  64.6116 129.7008 0020237 252.9429 331.4811  2.13101925 78115
COSMOS 2485 (747)       
1 39155U 13019A   21320.50247966  .00000081  00000+0  00000+0 0  9991
2 39155  64.7617 130.0208 0020136 226.1868 111.1013  2.13101899 66616
COSMOS 2492 (754)       
1 39620U 14012A   21320.84634156 -.00000070  00000+0  00000+0 0  9999
2 39620  65.8416  10.2617 0012640 313.9146 321.8065  2.13103162 59579
COSMOS 2500 (755)       
1 40001U 14032A   21320.57520968 -.00000071  00000+0  00000+0 0  9992
2 40001  65.7817  10.1464 0008334 206.1986  80.7518  2.13102333 57781
COSMOS 2501 (702K)      
1 40315U 14075A   21320.78071234 -.00000036  00000+0  00000+0 0  9998
2 40315  63.7361 248.6239 0017774 212.2123  39.4000  2.13101262 54197
COSMOS 2514 (751)       
1 41330U 16008A   21321.30345418 -.00000069  00000+0  00000+0 0  9997
2 41330  65.5823   9.8672 0012066 214.2667  94.7966  2.13102769 44962
COSMOS 2516 (753)       
1 41554U 16032A   21320.91681589 -.00000035  00000+0  00000+0 0  9993
2 41554  63.9617 248.8352 0014114 221.6297  49.4503  2.13106959 42563
COSMOS 2522 (752)       
1 42939U 17055A   21321.05431503 -.00000033  00000+0  00000+0 0  9990
2 42939  64.1944 249.1628 0008623 250.7132 345.9894  2.13102039 32321
COSMOS 2527 (756)       
1 43508U 18053A   21320.66159438  .00000080  00000+0  00000+0 0  9993
2 43508  64.9251 129.9713 0006906 211.7663 115.7783  2.13102525 26605
COSMOS 2529 (757)       
1 43687U 18086A   21320.64970406 -.00000038  00000+0  00000+0 0  9995
2 43687  64.4097 249.4361 0011050 270.7570 331.0879  2.13102093 23629
COSMOS 2534 (758)       
1 44299U 19030A   21320.39821622 -.00000040  00000+0  00000+0 0  9995
2 44299  64.4809 249.3095 0013789 288.4531 255.1836  2.13101862 19264
COSMOS 2544 (759)       
1 44850U 19088A   21320.64017140  .00000080  00000+0  00000+0 0  9994
2 44850  64.9100 129.8286 0009831 253.4549 101.2804  2.13102306 15035
COSMOS 2545 (760)       
1 45358U 20018A   21320.77448983 -.00000073  00000+0  00000+0 0  9993
2 45358  64.9181  10.6669 0010837 243.0106  64.5661  2.13102605 12998
